{
  "norad_id": 67783,
  "name": "KUIPER-00223",
  "history": [
    {
      "epoch": "2026-03-28T19:17:56.306688Z",
      "apogee_km": 470.49680976647596,
      "perigee_km": 453.03289875610244,
      "latitude_deg": 7.263168503133334e-05,
      "longitude_deg": 11.73282888133559,
      "height_km": 467.06551950870494,
      "semi_major_axis_km": 6839.9018542612885,
      "eccentricity": 0.00127662,
      "inclination_deg": 51.8817,
      "raan_deg": 127.4367,
      "arg_perigee_deg": 121.4723,
      "mean_anomaly_deg": 238.7513,
      "mean_motion_rev_day": 15.34715774
    }
  ]
}